{"type": "FeatureCollection", "features": [ {"type": "Feature", "properties": {"norad_id": 66466, "name": "STARLINK-35388", "group": "last-30-days", "lat": 41.924280847662175, "lon": 158.2843158359074, "alt_km": 438.0310069297784, "timestamp": "2025-12-15T22:44:27.658795+00:00", "meta": {"OBJECT_NAME": "STARLINK-35388", "OBJECT_ID": "2025-262L", "EPOCH": "2025-12-15T05:11:21.226560", "MEAN_MOTION": 15.40759857, "ECCENTRICITY": 0.00015419, "INCLINATION": 43.0005, "RA_OF_ASC_NODE": 57.0084, "ARG_OF_PERICENTER": 272.0068, "MEAN_ANOMALY": 88.0612, "EPHEMERIS_TYPE": 0, "CLASSIFICATION_TYPE": "U", "NORAD_CAT_ID": 66466, "ELEMENT_SET_NO": 999, "REV_AT_EPOCH": 594, "BSTAR": 0.0011940544, "MEAN_MOTION_DOT": 0.00050002, "MEAN_MOTION_DDOT": 0}, "tle": {"line1": "1 66466U 25262L   25349.21621790  .00050002  00000+0  11941-2 0  9990", "line2": "2 66466  43.0005  57.0084 0001541 272.0068  88.0612 15.40759857  5946"}}, "geometry": {"type": "Point", "coordinates": [158.2843158359074, 41.924280847662175]}}, {"type": "Feature", "properties": {"norad_id": 66467, "name": "STARLINK-35682", "group": "last-30-days", "lat": 41.531947422902476, "lon": 124.75617618909779, "alt_km": 438.31414444167876, "timestamp": "2025-12-15T22:44:27.658806+00:00", "meta": {"OBJECT_NAME": "STARLINK-35682", "OBJECT_ID": "2025-262M", "EPOCH": "2025-12-14T21:31:02.907552", "MEAN_MOTION": 15.40728091, "ECCENTRICITY": 0.00018902, "INCLINATION": 42.9992, "RA_OF_ASC_NODE": 58.9142, "ARG_OF_PERICENTER": 264.7143, "MEAN_ANOMALY": 95.3498, "EPHEMERIS_TYPE": 0, "CLASSIFICATION_TYPE": "U", "NORAD_CAT_ID": 66467, "ELEMENT_SET_NO": 999, "REV_AT_EPOCH": 589, "BSTAR": 0.0010797295, "MEAN_MOTION_DOT": 0.00045109, "MEAN_MOTION_DDOT": 0}, "tle": {"line1": "1 66467U 25262M   25348.89656143  .00045109  00000+0  10797-2 0  9994", "line2": "2 66467  42.9992  58.9142 0001890 264.7143  95.3498 15.40728091  5897"}}, "geometry": {"type": "Point", "coordinates": [124.75617618909779, 41.531947422902476]}}, {"type": "Feature", "properties": {"norad_id": 66468, "name": "STARLINK-35331", "group": "last-30-days", "lat": 38.58050726403613, "lon": 173.88036754089245, "alt_km": 438.5568189528494, "timestamp": "2025-12-15T22:44:27.658817+00:00", "meta": {"OBJECT_NAME": "STARLINK-35331", "OBJECT_ID": "2025-262N", "EPOCH": "2025-12-15T05:08:07.643040", "MEAN_MOTION": 15.40738124, "ECCENTRICITY": 0.00013463, "INCLINATION": 42.999, "RA_OF_ASC_NODE": 56.9906, "ARG_OF_PERICENTER": 279.5484, "MEAN_ANOMALY": 80.522, "EPHEMERIS_TYPE": 0, "CLASSIFICATION_TYPE": "U", "NORAD_CAT_ID": 66468, "ELEMENT_SET_NO": 999, "REV_AT_EPOCH": 594, "BSTAR": 0.0007332345, "MEAN_MOTION_DOT": 0.00030487, "MEAN_MOTION_DDOT": 0}, "tle": {"line1": "1 66468U 25262N   25349.21397735  .00030487  00000+0  73323-3 0  9999", "line2": "2 66468  42.9990  56.9906 0001346 279.5484  80.5220 15.40738124  5943"}}, "geometry": {"type": "Point", "coordinates": [173.88036754089245, 38.58050726403613]}}, {"type": "Feature", "properties": {"norad_id": 66469, "name": "STARLINK-35451", "group": "last-30-days", "lat": 19.177517647464857, "lon": -149.24402637001361, "alt_km": 441.16306641979736, "timestamp": "2025-12-15T22:44:27.658827+00:00", "meta": {"OBJECT_NAME": "STARLINK-35451", "OBJECT_ID": "2025-262P", "EPOCH": "2025-12-15T04:58:26.750784", "MEAN_MOTION": 15.4073075, "ECCENTRICITY": 0.00015673, "INCLINATION": 43.0007, "RA_OF_ASC_NODE": 56.9378, "ARG_OF_PERICENTER": 260.0001, "MEAN_ANOMALY": 100.0679, "EPHEMERIS_TYPE": 0, "CLASSIFICATION_TYPE": "U", "NORAD_CAT_ID": 66469, "ELEMENT_SET_NO": 999, "REV_AT_EPOCH": 594, "BSTAR": 0.0010268066, "MEAN_MOTION_DOT": 0.00042874, "MEAN_MOTION_DDOT": 0}, "tle": {"line1": "1 66469U 25262P   25349.20725406  .00042874  00000+0  10268-2 0  9990", "line2": "2 66469  43.0007  56.9378 0001567 260.0001 100.0679 15.40730750  5946"}}, "geometry": {"type": "Point", "coordinates": [-149.24402637001361, 19.177517647464857]}}, {"type": "Feature", "properties": {"norad_id": 66470, "name": "STARLINK-35655", "group": "last-30-days", "lat": 33.299730443393464, "lon": -172.08889047557636, "alt_km": 439.20732516039425, "timestamp": "2025-12-15T22:44:27.658838+00:00", "meta": {"OBJECT_NAME": "STARLINK-35655", "OBJECT_ID": "2025-262Q", "EPOCH": "2025-12-15T05:04:54.126048", "MEAN_MOTION": 15.4075733, "ECCENTRICITY": 0.00014249, "INCLINATION": 43.0001, "RA_OF_ASC_NODE": 56.9747, "ARG_OF_PERICENTER": 271.996, "MEAN_ANOMALY": 88.0734, "EPHEMERIS_TYPE": 0, "CLASSIFICATION_TYPE": "U", "NORAD_CAT_ID": 66470, "ELEMENT_SET_NO": 999, "REV_AT_EPOCH": 594, "BSTAR": 0.0011217689, "MEAN_MOTION_DOT": 0.00046934, "MEAN_MOTION_DDOT": 0}, "tle": {"line1": "1 66470U 25262Q   25349.21173757  .00046934  00000+0  11218-2 0  9996", "line2": "2 66470  43.0001  56.9747 0001424 271.9960  88.0734 15.40757330  5949"}}, "geometry": {"type": "Point", "coordinates": [-172.08889047557636, 33.299730443393464]}}, {"type": "Feature", "properties": {"norad_id": 66471, "name": "STARLINK-35569", "group": "last-30-days", "lat": 26.815523585143026, "lon": -160.1453263360994, "alt_km": 440.4705106751835, "timestamp": "2025-12-15T22:44:27.658849+00:00", "meta": {"OBJECT_NAME": "STARLINK-35569", "OBJECT_ID": "2025-262R", "EPOCH": "2025-12-15T08:00:01.999872", "MEAN_MOTION": 15.40702889, "ECCENTRICITY": 0.00014131, "INCLINATION": 43.0005, "RA_OF_ASC_NODE": 56.2442, "ARG_OF_PERICENTER": 272.2901, "MEAN_ANOMALY": 55.5721, "EPHEMERIS_TYPE": 0, "CLASSIFICATION_TYPE": "U", "NORAD_CAT_ID": 66471, "ELEMENT_SET_NO": 999, "REV_AT_EPOCH": 605, "BSTAR": 0.00014635138, "MEAN_MOTION_DOT": 5.815e-05, "MEAN_MOTION_DDOT": 0}, "tle": {"line1": "1 66471U 25262R   25349.33335648  .00005815  00000+0  14635-3 0  9999", "line2": "2 66471  43.0005  56.2442 0001413 272.2901  55.5721 15.40702889  6053"}}, "geometry": {"type": "Point", "coordinates": [-160.1453263360994, 26.815523585143026]}}, {"type": "Feature", "properties": {"norad_id": 66472, "name": "STARLINK-35567", "group": "last-30-days", "lat": 11.183030041036737, "lon": -139.60514238544687, "alt_km": 442.3097633893012, "timestamp": "2025-12-15T22:44:27.658863+00:00", "meta": {"OBJECT_NAME": "STARLINK-35567", "OBJECT_ID": "2025-262S", "EPOCH": "2025-12-15T08:00:01.999872", "MEAN_MOTION": 15.40703914, "ECCENTRICITY": 8.734e-05, "INCLINATION": 43.0008, "RA_OF_ASC_NODE": 56.1833, "ARG_OF_PERICENTER": 255.3892, "MEAN_ANOMALY": 97.3668, "EPHEMERIS_TYPE": 0, "CLASSIFICATION_TYPE": "U", "NORAD_CAT_ID": 66472, "ELEMENT_SET_NO": 999, "REV_AT_EPOCH": 605, "BSTAR": -8.9788478e-05, "MEAN_MOTION_DOT": -4.052e-05, "MEAN_MOTION_DDOT": 0}, "tle": {"line1": "1 66472U 25262S   25349.33335648 -.00004052  00000+0 -89788-4 0  9996", "line2": "2 66472  43.0008  56.1833 0000873 255.3892  97.3668 15.40703914  6054"}}, "geometry": {"type": "Point", "coordinates": [-139.60514238544687, 11.183030041036737]}}, {"type": "Feature", "properties": {"norad_id": 66473, "name": "STARLINK-35568", "group": "last-30-days", "lat": 2.711878427957286, "lon": -130.3033061539385, "alt_km": 443.25892607028345, "timestamp": "2025-12-15T22:44:27.658875+00:00", "meta": {"OBJECT_NAME": "STARLINK-35568", "OBJECT_ID": "2025-262T", "EPOCH": "2025-12-15T04:52:00.248160", "MEAN_MOTION": 15.40713546, "ECCENTRICITY": 0.00014009, "INCLINATION": 43.0008, "RA_OF_ASC_NODE": 56.9033, "ARG_OF_PERICENTER": 264.9878, "MEAN_ANOMALY": 95.0819, "EPHEMERIS_TYPE": 0, "CLASSIFICATION_TYPE": "U", "NORAD_CAT_ID": 66473, "ELEMENT_SET_NO": 999, "REV_AT_EPOCH": 594, "BSTAR": 0.0012061913, "MEAN_MOTION_DOT": 0.00050438, "MEAN_MOTION_DDOT": 0}, "tle": {"line1": "1 66473U 25262T   25349.20278065  .00050438  00000+0  12062-2 0  9998", "line2": "2 66473  43.0008  56.9033 0001400 264.9878  95.0819 15.40713546  5944"}}, "geometry": {"type": "Point", "coordinates": [-130.3033061539385, 2.711878427957286]}}, {"type": "Feature", "properties": {"norad_id": 66474, "name": "STARLINK-35620", "group": "last-30-days", "lat": -21.779159438821736, "lon": 26.853816744251517, "alt_km": 421.30927687436724, "timestamp": "2025-12-15T22:44:27.658887+00:00", "meta": {"OBJECT_NAME": "STARLINK-35620", "OBJECT_ID": "2025-262U", "EPOCH": "2025-12-15T05:53:26.920608", "MEAN_MOTION": 15.51772948, "ECCENTRICITY": 0.00240492, "INCLINATION": 43.001, "RA_OF_ASC_NODE": 56.3576, "ARG_OF_PERICENTER": 204.0327, "MEAN_ANOMALY": 155.9413, "EPHEMERIS_TYPE": 0, "CLASSIFICATION_TYPE": "U", "NORAD_CAT_ID": 66474, "ELEMENT_SET_NO": 999, "REV_AT_EPOCH": 595, "BSTAR": 0.00024523519, "MEAN_MOTION_DOT": 0.00014865, "MEAN_MOTION_DDOT": 0}, "tle": {"line1": "1 66474U 25262U   25349.24545047  .00014865  00000+0  24524-3 0  9991", "line2": "2 66474  43.0010  56.3576 0024049 204.0327 155.9413 15.51772948  5952"}}, "geometry": {"type": "Point", "coordinates": [26.853816744251517, -21.779159438821736]}}, {"type": "Feature", "properties": {"norad_id": 66475, "name": "STARLINK-35538", "group": "last-30-days", "lat": -14.008272496713886, "lon": -111.91910490451866, "alt_km": 445.2377373727368, "timestamp": "2025-12-15T22:44:27.658898+00:00", "meta": {"OBJECT_NAME": "STARLINK-35538", "OBJECT_ID": "2025-262V", "EPOCH": "2025-12-15T08:00:01.999872", "MEAN_MOTION": 15.40702029, "ECCENTRICITY": 7.915e-05, "INCLINATION": 43.0011, "RA_OF_ASC_NODE": 56.0926, "ARG_OF_PERICENTER": 264.0722, "MEAN_ANOMALY": 126.0093, "EPHEMERIS_TYPE": 0, "CLASSIFICATION_TYPE": "U", "NORAD_CAT_ID": 66475, "ELEMENT_SET_NO": 999, "REV_AT_EPOCH": 605, "BSTAR": -8.8160832e-05, "MEAN_MOTION_DOT": -3.984e-05, "MEAN_MOTION_DDOT": 0}, "tle": {"line1": "1 66475U 25262V   25349.33335648 -.00003984  00000+0 -88161-4 0  9996", "line2": "2 66475  43.0011  56.0926 0000791 264.0722 126.0093 15.40702029  6059"}}, "geometry": {"type": "Point", "coordinates": [-111.91910490451866, -14.008272496713886]}}]}